H1 CPF  1  DLR 2021 04 15 10  6052 technosat            
H2  1704205 6203    42829 2021 04 15 00 00 00 2021 04 22 00 00 00    60 1 1  0 0 0
H9
10 0 59325  43200.000000  0       1369277.515      -2594356.018       6316591.762
10 0 59325  43260.000000  0       1049734.652      -2313061.351       6485120.873
10 0 59325  43320.000000  0        728291.995      -2019229.418       6626165.891
10 0 59325  43380.000000  0        406407.501      -1714089.759       6739140.397
10 0 59325  43440.000000  0         85528.825      -1398931.026       6823576.609
10 0 59325  43500.000000  0       -232913.172      -1075095.420       6879127.108
10 0 59325  43560.000000  0       -547510.732       -743972.919       6905566.006
10 0 59325  43620.000000  0       -856885.350       -406995.338       6902789.733
10 0 59325  43680.000000  0      -1159693.775        -65630.117       6870817.314
10 0 59325  43740.000000  0      -1454633.769        278626.041       6809790.158
10 0 59325  43800.000000  0      -1740449.620        624253.704       6719971.383
10 0 59325  43860.000000  0      -2015937.436        969717.352       6601744.676
10 0 59325  43920.000000  0      -2279950.180       1313472.145       6455612.684
10 0 59325  43980.000000  0      -2531402.393       1653970.763       6282194.936
10 0 59325  44040.000000  0      -2769274.620       1989670.310       6082225.346
10 0 59325  44100.000000  0      -2992617.558       2319039.278       5856549.285
10 0 59325  44160.000000  0      -3200555.872       2640564.544       5606120.163
10 0 59325  44220.000000  0      -3392291.676       2952758.307       5331995.541
10 0 59325  44280.000000  0      -3567107.649       3254164.973       5035332.821
10 0 59325  44340.000000  0      -3724369.776       3543367.971       4717384.547
10 0 59325  44400.000000  0      -3863529.708       3818996.484       4379493.266
10 0 59325  44460.000000  0      -3984126.707       4079732.020       4023085.987
10 0 59325  44520.000000  0      -4085789.173       4324314.811       3649668.279
10 0 59325  44580.000000  0      -4168235.800       4551550.017       3260817.977
10 0 59325  44640.000000  0      -4231276.236       4760313.646       2858178.495
10 0 59325  44700.000000  0      -4274811.282       4949558.155       2443451.889
10 0 59325  44760.000000  0      -4298832.700       5118317.773       2018391.649
10 0 59325  44820.000000  0      -4303422.577       5265713.440       1584795.229
10 0 59325  44880.000000  0      -4288752.278       5390957.369       1144496.405
10 0 59325  44940.000000  0      -4255080.978       5493357.236        699357.437
10 0 59325  45000.000000  0      -4202753.792       5572319.964        251261.063
10 0 59325  45060.000000  0      -4132199.445       5627355.030       -197897.661
10 0 59325  45120.000000  0      -4043927.485       5658077.297       -646219.602
10 0 59325  45180.000000  0      -3938525.149       5664209.236      -1091809.778
10 0 59325  45240.000000  0      -3816653.904       5645582.656      -1532785.566
10 0 59325  45300.000000  0      -3679045.505       5602139.889      -1967284.769
10 0 59325  45360.000000  0      -3526497.823       5533934.576      -2393473.530
10 0 59325  45420.000000  0      -3359870.378       5441131.852      -2809554.215
10 0 59325  45480.000000  0      -3180079.621       5324007.930      -3213773.027
10 0 59325  45540.000000  0      -2988093.994       5182949.184      -3604427.375
10 0 59325  45600.000000  0      -2784928.798       5018450.756      -3979872.989
10 0 59325  45660.000000  0      -2571640.858       4831114.652      -4338530.757
10 0 59325  45720.000000  0      -2349323.057       4621647.320      -4678893.175
10 0 59325  45780.000000  0      -2119098.821       4390856.862      -4999530.430
10 0 59325  45840.000000  0      -1882116.531       4139649.818      -5299096.237
10 0 59325  45900.000000  0      -1639543.858       3869027.472      -5576333.318
10 0 59325  45960.000000  0      -1392562.081       3580081.721      -5830078.483
10 0 59325  46020.000000  0      -1142360.386       3273990.537      -6059267.299
10 0 59325  46080.000000  0       -890130.206       2952013.046      -6262938.303
10 0 59325  46140.000000  0       -637059.615       2615484.273      -6440236.745
10 0 59325  46200.000000  0       -384327.856       2265809.642      -6590417.897
10 0 59325  46260.000000  0       -133099.959       1904459.147      -6712850.006
10 0 59325  46320.000000  0        115478.469       1532961.223      -6807016.783
10 0 59325  46380.000000  0        360286.370       1152896.385      -6872519.478
10 0 59325  46440.000000  0        600232.223        765890.665      -6909078.494
10 0 59325  46500.000000  0        834258.855        373608.774      -6916534.589
10 0 59325  46560.000000  0       1061348.025        -22252.967      -6894849.559
10 0 59325  46620.000000  0       1280524.781       -419973.824      -6844106.434
10 0 59325  46680.000000  0       1490861.588       -817815.933      -6764509.246
10 0 59325  46740.000000  0       1691482.194      -1214031.732      -6656382.413
10 0 59325  46800.000000  0       1881565.307      -1606871.496      -6520169.666
10 0 59325  46860.000000  0       2060348.016      -1994590.937      -6356432.468
10 0 59325  46920.000000  0       2227128.875      -2375458.836      -6165848.041
10 0 59325  46980.000000  0       2381270.726      -2747764.761      -5949206.997
10 0 59325  47040.000000  0       2522203.284      -3109826.872      -5707410.462
10 0 59325  47100.000000  0       2649425.396      -3459999.691      -5441466.616
10 0 59325  47160.000000  0       2762506.909      -3796681.715      -5152486.694
10 0 59325  47220.000000  0       2861090.185      -4118322.824      -4841680.610
10 0 59325  47280.000000  0       2944891.285      -4423431.569      -4510352.171
10 0 59325  47340.000000  0       3013700.790      -4710582.285      -4159893.915
10 0 59325  47400.000000  0       3067384.318      -4978422.053      -3791781.555
10 0 59325  47460.000000  0       3105882.653      -5225677.467      -3407567.943
10 0 59325  47520.000000  0       3129211.466      -5451161.064      -3008876.565
10 0 59325  47580.000000  0       3137460.675      -5653777.320      -2597394.686
10 0 59325  47640.000000  0       3130793.448      -5832528.298      -2174866.195
10 0 59325  47700.000000  0       3109444.835      -5986518.878      -1743084.124
10 0 59325  47760.000000  0       3073720.007      -6114961.561      -1303882.866
10 0 59325  47820.000000  0       3023992.108      -6217180.763       -859130.130
10 0 59325  47880.000000  0       2960699.756      -6292616.536       -410718.671
10 0 59325  47940.000000  0       2884344.162      -6340827.635         39442.082
10 0 59325  48000.000000  0       2795485.983      -6361494.087        489434.390
10 0 59325  48060.000000  0       2694741.892      -6354419.251        937340.708
10 0 59325  48120.000000  0       2582780.830      -6319531.218       1381252.278
10 0 59325  48180.000000  0       2460320.009      -6256883.517       1819277.693
10 0 59325  48240.000000  0       2328120.623      -6166655.126       2249551.300
10 0 59325  48300.000000  0       2186983.390      -6049149.907       2670241.385
10 0 59325  48360.000000  0       2037743.975      -5904795.421       3079558.234
10 0 59325  48420.000000  0       1881268.208      -5734141.174       3475761.905
10 0 59325  48480.000000  0       1718447.193      -5537856.298       3857169.795
10 0 59325  48540.000000  0       1550192.352      -5316726.588       4222163.890
10 0 59325  48600.000000  0       1377430.458      -5071651.025       4569197.640
10 0 59325  48660.000000  0       1201098.673      -4803637.842       4896802.539
10 0 59325  48720.000000  0       1022139.493      -4513800.036       5203594.382
10 0 59325  48780.000000  0        841495.728      -4203350.313       5488279.039
10 0 59325  48840.000000  0        660105.614      -3873595.585       5749657.730
10 0 59325  48900.000000  0        478898.009      -3525931.093       5986631.825
10 0 59325  48960.000000  0        298787.708      -3161834.210       6198207.175
10 0 59325  49020.000000  0        120670.894      -2782857.934       6383498.001
10 0 59325  49080.000000  0        -54579.232      -2390624.068       6541730.317
10 0 59325  49140.000000  0       -226116.627      -1986816.150       6672244.883
10 0 59325  49200.000000  0       -393126.417      -1573172.162       6774499.727
10 0 59325  49260.000000  0       -554828.710      -1151476.957       6848072.207
10 0 59325  49320.000000  0       -710482.146       -723554.477       6892660.558
10 0 59325  49380.000000  0       -859387.239       -291259.836       6908084.952
10 0 59325  49440.000000  0      -1000889.476        143528.707       6894288.054
10 0 59325  49500.000000  0      -1134382.141        578917.891       6851335.120
10 0 59325  49560.000000  0      -1259308.847       1013007.645       6779413.589
10 0 59325  49620.000000  0      -1375165.809       1443899.299       6678832.236
10 0 59325  49680.000000  0      -1481503.841       1869703.826       6550019.874
10 0 59325  49740.000000  0      -1577930.064       2288550.068       6393523.557
10 0 59325  49800.000000  0      -1664109.313       2698592.897       6210006.348
10 0 59325  49860.000000  0      -1739765.265       3098021.343       6000244.599
10 0 59325  49920.000000  0      -1804681.220       3485066.536       5765124.776
10 0 59325  49980.000000  0      -1858700.579       3858009.545       5505639.947
10 0 59325  50040.000000  0      -1901727.080       4215189.119       5222885.789
10 0 59325  50100.000000  0      -1933724.702       4555009.192       4918056.088
10 0 59325  50160.000000  0      -1954717.233       4875946.127       4592437.852
10 0 59325  50220.000000  0      -1964787.537       5176555.694       4247406.018
10 0 59325  50280.000000  0      -1964076.524       5455479.751       3884417.778
10 0 59325  50340.000000  0      -1952781.837       5711452.547       3505006.489
99
